#dP2022 11 28  0  0  0.00000000      97 __u+U IGS14 FIT  IAC
## 2238  86400.00000000   900.00000000 59911 0.0000000000000
+  118   C06C07C08C09C10C11C12C13C14C16C19C20C21C22C23C24C25
+        C26C27C28C29C30C32C33C34C35C36C37C38C39C40C41C42C43
+        C44C45C46E01E02E03E04E05E07E08E09E10E11E12E13E14E15
+        E18E19E21E24E25E26E27E30E31E33E34E36G01G02G03G04G05
+        G06G07G08G09G10G11G12G13G14G15G16G17G18G19G20G21G22
+        G23G24G25G26G27G29G30G31G32J02J03J04R01R02R03R04R05
+        R07R08R09R11R12R13R14R15R17R18R19R20R21R22R24R25  0
++         7  7  9  7  7  7  6 11  7  7  5  5  6  5  5  6  6
++         6  5  5  5  6  6  6  6  6  6  6  6  6  6  6  6  6
++         6  6  5  4  4  4  4  4  4  4  4  4  4  4  4  4  4
++         4  4  4  4  4  4  4  4  4  4  4  4  3  3  3  3  3
++         3  3  3  3  3  3  3  3  3  3  3  3  3  4  3  3  4
++         3  3  3  3  3  3  3  4  4  9  9 10  7  6  6  6  6
++         6  6  6  6  6  7  6  6  6  6  7  7  6  7  6  8  0
%c M  cc GPS ccc cccc cccc cccc cccc ccccc ccccc ccccc ccccc
%c cc cc ccc ccc cccc cccc cccc cccc ccccc ccccc ccccc ccccc
%f  1.2500000  1.025000000  0.00000000000  0.000000000000000
%f  0.0000000  0.000000000  0.00000000000  0.000000000000000
%i    0    0    0    0      0      0      0      0         0
%i    0    0    0    0      0      0      0      0         0
/* INFORMATION & ANALYSIS CENTER (IAC)            FINAL DATA
/* S/V CLOCKS ARE ALIGNED TO GNSS TIME                      
/* G:C1WC2W R:C1PC2P E:C1XC5X C:C2IC6I J:C1CC2S             
/* PCV:IGS14_2233 OL/AL:FES2004  NONE     YN ORB:CoN CLK:CoN
*  2022 11 28  4  0  0.00000000
PC06    234.561776  31045.890445  28642.031243    228.140639
PC07 -15821.925860  28961.787086 -26277.780680    152.584775
PC08 -11984.676411  40304.815012  -1120.438011    517.268528
PC09   6808.603295  34711.025992  23702.623891   -796.174575
PC10  -7927.010698  29000.081239 -29425.087390     61.013517
PC11  22096.936464  16776.394745   2922.381494   -267.199236
PC12  10895.898751  21490.441162 -14019.254295    320.941584
PC13  -6000.695989  41020.844766   6895.896835    144.454991
PC14  20189.536593   5821.058093  18352.272108    215.334252
PC16  -4562.859086  27735.770235  31695.261496    110.490759
PC19 -25499.631354   1464.982139 -11236.493603   -909.126084
PC20 -13362.508763 -10951.130546 -21913.390861    823.848407
PC21  -7817.652745  17680.887854  20138.987954   -917.216997
PC22 -23532.005087  13573.564653   6416.314295   -769.720252
PC23  14911.706114 -16796.903504 -16566.923298   -874.290632
PC24   7085.093111  22517.401300 -14872.151264   -747.960108
PC25  16095.494480   2438.046287 -22675.750127     31.258917
PC26  -3935.819599  27605.704730    -17.596069    -42.118586
PC27  -2456.609636 -19776.685139  19514.619973     58.008939
PC28  14251.064728  -8400.871031  22480.570262     41.007420
PC29 -23924.253551  -8182.450652 -11810.474040     46.409595
PC30 -18560.418569 -19890.357497   6168.912155      1.097754
PC32   7777.194972 -17749.079462 -20071.736619   -701.980438
PC33  25447.635925  -1503.372130  11343.911770   -903.309002
PC34  19279.542694  19550.957130  -5047.440383     49.022034
PC35 -15266.276447   7651.855146 -22070.032173    108.247339
PC36 -15899.520099  -3591.904818  22669.853899   -808.099507
PC37   5467.078863 -27351.309996  -1284.903095   -903.081805
PC38 -15457.764430  38185.318203  -8515.536118     41.186853
PC39  -7391.279471  24928.963933  33247.453507     -0.944661
PC40 -23456.067298  22851.081981 -26678.761664     -9.014796
PC41  23789.707823 -13367.449161  -5809.308811   -321.930623
PC42  12153.107115  11721.410708  22253.337957   -746.732211
PC43  24029.388842   8855.124977  11106.287929     27.286944
PC44   2911.185114  19719.742906 -19549.007892    127.782134
PC45 -14711.561309  17122.096099  16383.638295    -27.864505
PC46  -8084.184843 -21272.913943  16177.355212    -15.916993
PE01 -21253.714062  20058.561382   4662.121380   -571.648173
PE02  21171.081234 -20231.772342  -4406.443829      5.261825
PE03  20215.098291 -10098.574087 -19126.275424   -624.344150
PE04    276.305905  17253.626631  24049.108164     -2.312308
PE05  29296.592387   3176.765352  -2822.089874   -120.387179
PE07 -21163.369163 -14394.977163 -14873.927065     -2.808969
PE08   -314.949737 -17113.780439 -24156.753298   -639.601249
PE09  21037.771000  14334.921969  15090.846115   -744.658583
PE10   9620.126061  27967.418755  -1049.944163   -493.920936
PE11  15129.503158  23637.316663   9416.281354   1121.035162
PE12   2945.402616  27587.470608 -10327.996553   -301.127667
PE13 -14771.487323 -24173.106778  -8576.256348    430.515880
PE14 -11203.004392  17368.896607 -23946.729589     69.094178
PE15  -2809.812011 -27485.024306  10636.692646    704.563168
PE18  -4218.446893 -17300.039847  18001.130537   -692.194039
PE19 -22353.749240   8353.313993  17506.706901  -3883.820491
PE21 -21733.221221   5151.026213  19420.761013   -497.177766
PE24   9141.453597  14684.457444 -24027.613831   -971.587917
PE25  21648.099856  -4871.868548 -19589.980685   -593.688278
PE26 -17964.193018  -5770.255481 -22800.791182  -1895.937244
PE27  -9906.446855 -13880.874724  24200.236255   -450.079460
PE30   8360.225328 -24675.038010  14064.531814  -1033.882351
PE31  -7625.263091  24535.382634 -14679.833680   -509.274576
PE33 -10719.734794  14557.806803 -23429.262035   -455.629859
PE34  10592.796482 -14758.297586  23372.549378    -16.834533
PE36  17949.791257   6720.561497  22563.563994   -467.300586
PG01  14530.839256  -1351.996580  21899.823283    245.415904
PG02 -13577.974999   5910.884941 -21423.602726   -635.782703
PG03  21223.593435  -9278.998331  12778.724781   -374.508721
PG04  24317.588005   -665.171287 -10786.525545    -78.620505
PG05 -16569.333356  -3103.754213 -20723.794214   -105.977025
PG06  -5800.256590 -25822.466691   1702.923006    528.429346
PG07   8536.292125 -17078.983366 -17829.348507    281.862701
PG08  26060.989272   6101.893208    -55.636374    -95.958214
PG09  16340.326898  -9707.572149 -18652.489764   -262.038960
PG10  -7663.970810  21249.290504  13869.455906    -13.749110
PG11 -12045.480225 -21328.999108 -10307.872676    -47.001163
PG12 -21745.532133   7189.242526  13090.021117   -309.441936
PG13 -22190.910377 -13572.119806  -6014.744240    432.402327
PG14  10269.540426 -21391.818584  11820.021117    -76.762125
PG15 -26492.438943  -3433.541892   -382.129166     -8.721312
PG16  12978.493718   8693.613389 -21814.322630   -526.718202
PG17   2834.059735 -14891.916800  22248.556603    681.556494
PG18  -7066.688024  19061.878537 -17014.883947    -38.316548
PG19  -9806.812707 -16735.555661  18031.570699    243.217666
PG20  -7780.720205 -14812.917879 -20653.579913    467.173959
PG21  17341.308989   7582.167404  19532.370147    155.098884
PG22  12388.232613  16826.976905  16923.150112    373.520746
PG23 -15940.828410  20834.761399   3630.741824     -0.663164
PG24 -16827.285734  -2536.223080  20143.726776     40.181895
PG25 -20158.126420  16384.846922   4455.432916    396.860294
PG26   4011.390263  17436.328538 -19624.802805    237.034552
PG27  20904.402734  12957.013751 -10756.490344    167.483071
PG29 -18555.501700   6439.250980 -17958.381326   -570.244666
PG30    416.314373 -24773.015795  -9122.230230   -536.208153
PG31   6570.985430  25471.638895   -178.564435   -201.567350
PG32   1471.789166  15872.996388  21423.530575   -310.911948
PJ02 -34437.222365  24389.864283   6382.632553     -0.206724
PJ03 -20869.835068  21147.780895 -25292.733370     -5.502214
PJ04 -27914.258708  31490.403588  10329.292847    113.866002
PR01  -2429.897329 -10757.404297 -23005.636330     18.611283
PR02 -20186.307678  -3736.241741 -15054.135992    -23.389107
PR03 -24898.834112   5175.688006   1516.712021     68.063321
PR04 -15773.777083  10738.480471  16939.214228    166.536364
PR05   1983.209551  10598.553477  23122.061074    103.631184
PR07  24849.620026  -5457.551683  -2184.351537     45.104019
PR08  15665.105202 -10891.759242 -16899.204649    -68.304661
PR09   8771.405192   8617.387057 -22341.952959     90.001512
PR11  10771.802719 -22256.824929  -6233.446883     18.319878
PR12   1586.326444 -22258.134920  12400.998274     23.207478
PR13  -7725.953055 -10136.214965  22080.321383    -29.379009
PR14 -13377.977055   9833.028911  19379.710634     24.079581
PR15 -10694.429808  22565.192459   5223.393491     92.697921
PR17 -14732.673809  -3050.706358 -20597.022079    582.036015
PR18  -3604.653127  11522.143298 -22456.025339     54.139349
PR19   7810.419587  20040.924386 -13699.735814   -212.558823
PR20  17252.217055  17659.915055   6504.015929    -82.957704
PR21  13812.573373   1626.112292  21381.414886   -353.174699
PR22   3829.000599 -12182.127811  22110.273542     19.673114
PR24 -17948.985133 -16714.639599  -7022.186578    129.266037
PR25  14937.812666   3923.660410  20302.717769     47.459402
EOF
